STARLINK-35962          
1 66518U 25265C   25331.25002315 -.01318468  00000+0 -51697-2 0  9990
2 66518  43.0012 147.0232 0001904 271.1404 156.4957 15.88563928  2509
STARLINK-35931          
1 66519U 25265D   25331.25002315 -.01319437  00000+0 -51650-2 0  9997
2 66519  43.0014 147.0177 0001932 273.3481 156.4109 15.88597825  2502
STARLINK-35952          
1 66520U 25265E   25331.25002315 -.01331054  00000+0 -52055-2 0  9998
2 66520  43.0012 147.0122 0001883 275.5918 156.3067 15.88640727  2508
STARLINK-35915          
1 66521U 25265F   25331.25002315 -.01332035  00000+0 -51992-2 0  9998
2 66521  43.0012 147.0079 0001877 271.1045 162.4392 15.88681168  2509
STARLINK-35946          
1 66522U 25265G   25331.25002315 -.01274973  00000+0 -49535-2 0  9995
2 66522  43.0012 147.0024 0002055 276.0649 159.7708 15.88655086  2503
STARLINK-35969          
1 66523U 25265H   25331.25002315 -.01351659  00000+0 -52649-2 0  9993
2 66523  43.0014 146.9970 0001828 274.7835 163.0761 15.88762464  2509
STARLINK-35687          
1 66524U 25265J   25331.25002315 -.01360612  00000+0 -52934-2 0  9990
2 66524  43.0013 146.9914 0001924 272.3613 167.6533 15.88803121  2505
STARLINK-35975          
1 66525U 25265K   25331.25002315 -.01362163  00000+0 -52903-2 0  9990
2 66525  43.0013 146.9871 0001767 276.4742 165.4101 15.88842332  2505
STARLINK-35932          
1 66526U 25265L   25331.25002315 -.01371558  00000+0 -53208-2 0  9998
2 66526  43.0014 146.9817 0001842 275.0571 168.9447 15.88882475  2396
STARLINK-35935          
1 66527U 25265M   25331.25002315 -.01380404  00000+0 -53486-2 0  9997
2 66527  43.0014 146.9766 0001879 273.6309 172.5132 15.88923995  2501
STARLINK-35928          
1 66528U 25265N   25331.25002315 -.01383657  00000+0 -53531-2 0  9992
2 66528  43.0015 146.9711 0001842 274.0375 174.2116 15.88960919  2509
STARLINK-35933          
1 66529U 25265P   25331.25002315 -.01396260  00000+0 -53970-2 0  9994
2 66529  43.0015 146.9653 0001851 272.4069 178.0532 15.89004316  2502
