CCSDS_OMM_VERS = 2.0
CREATION_DATE  = 
ORIGINATOR     = 

OBJECT_NAME    = STARLINK-35962
OBJECT_ID      = 2025-265C
CENTER_NAME    = EARTH
REF_FRAME      = TEME
TIME_SYSTEM    = UTC
MEAN_ELEMENT_THEORY = SGP/SGP4

EPOCH          = 2025-11-27T06:00:02.000160
MEAN_MOTION    = 15.88563928
ECCENTRICITY   = .00019045
INCLINATION    = 43.0012
RA_OF_ASC_NODE = 147.0232
ARG_OF_PERICENTER = 271.1404
MEAN_ANOMALY   = 156.4957

EPHEMERIS_TYPE = 0
CLASSIFICATION_TYPE = U
NORAD_CAT_ID   = 66518
ELEMENT_SET_NO = 999
REV_AT_EPOCH   = 250
BSTAR          = -.51696929E-2
MEAN_MOTION_DOT = -.1318468E-1
MEAN_MOTION_DDOT = 0

CCSDS_OMM_VERS = 2.0
CREATION_DATE  = 
ORIGINATOR     = 

OBJECT_NAME    = STARLINK-35931
OBJECT_ID      = 2025-265D
CENTER_NAME    = EARTH
REF_FRAME      = TEME
TIME_SYSTEM    = UTC
MEAN_ELEMENT_THEORY = SGP/SGP4

EPOCH          = 2025-11-27T06:00:02.000160
MEAN_MOTION    = 15.88597825
ECCENTRICITY   = .00019326
INCLINATION    = 43.0014
RA_OF_ASC_NODE = 147.0177
ARG_OF_PERICENTER = 273.3481
MEAN_ANOMALY   = 156.4109

EPHEMERIS_TYPE = 0
CLASSIFICATION_TYPE = U
NORAD_CAT_ID   = 66519
ELEMENT_SET_NO = 999
REV_AT_EPOCH   = 250
BSTAR          = -.51650127E-2
MEAN_MOTION_DOT = -.1319437E-1
MEAN_MOTION_DDOT = 0

CCSDS_OMM_VERS = 2.0
CREATION_DATE  = 
ORIGINATOR     = 

OBJECT_NAME    = STARLINK-35952
OBJECT_ID      = 2025-265E
CENTER_NAME    = EARTH
REF_FRAME      = TEME
TIME_SYSTEM    = UTC
MEAN_ELEMENT_THEORY = SGP/SGP4

EPOCH          = 2025-11-27T06:00:02.000160
MEAN_MOTION    = 15.88640727
ECCENTRICITY   = .00018839
INCLINATION    = 43.0012
RA_OF_ASC_NODE = 147.0122
ARG_OF_PERICENTER = 275.5918
MEAN_ANOMALY   = 156.3067

EPHEMERIS_TYPE = 0
CLASSIFICATION_TYPE = U
NORAD_CAT_ID   = 66520
ELEMENT_SET_NO = 999
REV_AT_EPOCH   = 250
BSTAR          = -.52055418E-2
MEAN_MOTION_DOT = -.1331054E-1
MEAN_MOTION_DDOT = 0

CCSDS_OMM_VERS = 2.0
CREATION_DATE  = 
ORIGINATOR     = 

OBJECT_NAME    = STARLINK-35915
OBJECT_ID      = 2025-265F
CENTER_NAME    = EARTH
REF_FRAME      = TEME
TIME_SYSTEM    = UTC
MEAN_ELEMENT_THEORY = SGP/SGP4

EPOCH          = 2025-11-27T06:00:02.000160
MEAN_MOTION    = 15.88681168
ECCENTRICITY   = .00018776
INCLINATION    = 43.0012
RA_OF_ASC_NODE = 147.0079
ARG_OF_PERICENTER = 271.1045
MEAN_ANOMALY   = 162.4392

EPHEMERIS_TYPE = 0
CLASSIFICATION_TYPE = U
NORAD_CAT_ID   = 66521
ELEMENT_SET_NO = 999
REV_AT_EPOCH   = 250
BSTAR          = -.51992253E-2
MEAN_MOTION_DOT = -.1332035E-1
MEAN_MOTION_DDOT = 0

CCSDS_OMM_VERS = 2.0
CREATION_DATE  = 
ORIGINATOR     = 

OBJECT_NAME    = STARLINK-35946
OBJECT_ID      = 2025-265G
CENTER_NAME    = EARTH
REF_FRAME      = TEME
TIME_SYSTEM    = UTC
MEAN_ELEMENT_THEORY = SGP/SGP4

EPOCH          = 2025-11-27T06:00:02.000160
MEAN_MOTION    = 15.88655086
ECCENTRICITY   = .00020555
INCLINATION    = 43.0012
RA_OF_ASC_NODE = 147.0024
ARG_OF_PERICENTER = 276.0649
MEAN_ANOMALY   = 159.7708

EPHEMERIS_TYPE = 0
CLASSIFICATION_TYPE = U
NORAD_CAT_ID   = 66522
ELEMENT_SET_NO = 999
REV_AT_EPOCH   = 250
BSTAR          = -.49534658E-2
MEAN_MOTION_DOT = -.1274973E-1
MEAN_MOTION_DDOT = 0

CCSDS_OMM_VERS = 2.0
CREATION_DATE  = 
ORIGINATOR     = 

OBJECT_NAME    = STARLINK-35969
OBJECT_ID      = 2025-265H
CENTER_NAME    = EARTH
REF_FRAME      = TEME
TIME_SYSTEM    = UTC
MEAN_ELEMENT_THEORY = SGP/SGP4

EPOCH          = 2025-11-27T06:00:02.000160
MEAN_MOTION    = 15.88762464
ECCENTRICITY   = .00018282
INCLINATION    = 43.0014
RA_OF_ASC_NODE = 146.9970
ARG_OF_PERICENTER = 274.7835
MEAN_ANOMALY   = 163.0761

EPHEMERIS_TYPE = 0
CLASSIFICATION_TYPE = U
NORAD_CAT_ID   = 66523
ELEMENT_SET_NO = 999
REV_AT_EPOCH   = 250
BSTAR          = -.52649071E-2
MEAN_MOTION_DOT = -.1351659E-1
MEAN_MOTION_DDOT = 0

CCSDS_OMM_VERS = 2.0
CREATION_DATE  = 
ORIGINATOR     = 

OBJECT_NAME    = STARLINK-35687
OBJECT_ID      = 2025-265J
CENTER_NAME    = EARTH
REF_FRAME      = TEME
TIME_SYSTEM    = UTC
MEAN_ELEMENT_THEORY = SGP/SGP4

EPOCH          = 2025-11-27T06:00:02.000160
MEAN_MOTION    = 15.88803121
ECCENTRICITY   = .00019247
INCLINATION    = 43.0013
RA_OF_ASC_NODE = 146.9914
ARG_OF_PERICENTER = 272.3613
MEAN_ANOMALY   = 167.6533

EPHEMERIS_TYPE = 0
CLASSIFICATION_TYPE = U
NORAD_CAT_ID   = 66524
ELEMENT_SET_NO = 999
REV_AT_EPOCH   = 250
BSTAR          = -.52934015E-2
MEAN_MOTION_DOT = -.1360612E-1
MEAN_MOTION_DDOT = 0

CCSDS_OMM_VERS = 2.0
CREATION_DATE  = 
ORIGINATOR     = 

OBJECT_NAME    = STARLINK-35975
OBJECT_ID      = 2025-265K
CENTER_NAME    = EARTH
REF_FRAME      = TEME
TIME_SYSTEM    = UTC
MEAN_ELEMENT_THEORY = SGP/SGP4

EPOCH          = 2025-11-27T06:00:02.000160
MEAN_MOTION    = 15.88842332
ECCENTRICITY   = .00017678
INCLINATION    = 43.0013
RA_OF_ASC_NODE = 146.9871
ARG_OF_PERICENTER = 276.4742
MEAN_ANOMALY   = 165.4101

EPHEMERIS_TYPE = 0
CLASSIFICATION_TYPE = U
NORAD_CAT_ID   = 66525
ELEMENT_SET_NO = 999
REV_AT_EPOCH   = 250
BSTAR          = -.52902697E-2
MEAN_MOTION_DOT = -.1362163E-1
MEAN_MOTION_DDOT = 0

CCSDS_OMM_VERS = 2.0
CREATION_DATE  = 
ORIGINATOR     = 

OBJECT_NAME    = STARLINK-35932
OBJECT_ID      = 2025-265L
CENTER_NAME    = EARTH
REF_FRAME      = TEME
TIME_SYSTEM    = UTC
MEAN_ELEMENT_THEORY = SGP/SGP4

EPOCH          = 2025-11-27T06:00:02.000160
MEAN_MOTION    = 15.88882475
ECCENTRICITY   = .0001842
INCLINATION    = 43.0014
RA_OF_ASC_NODE = 146.9817
ARG_OF_PERICENTER = 275.0571
MEAN_ANOMALY   = 168.9447

EPHEMERIS_TYPE = 0
CLASSIFICATION_TYPE = U
NORAD_CAT_ID   = 66526
ELEMENT_SET_NO = 999
REV_AT_EPOCH   = 239
BSTAR          = -.53208111E-2
MEAN_MOTION_DOT = -.1371558E-1
MEAN_MOTION_DDOT = 0

CCSDS_OMM_VERS = 2.0
CREATION_DATE  = 
ORIGINATOR     = 

OBJECT_NAME    = STARLINK-35935
OBJECT_ID      = 2025-265M
CENTER_NAME    = EARTH
REF_FRAME      = TEME
TIME_SYSTEM    = UTC
MEAN_ELEMENT_THEORY = SGP/SGP4

EPOCH          = 2025-11-27T06:00:02.000160
MEAN_MOTION    = 15.88923995
ECCENTRICITY   = .00018798
INCLINATION    = 43.0014
RA_OF_ASC_NODE = 146.9766
ARG_OF_PERICENTER = 273.6309
MEAN_ANOMALY   = 172.5132

EPHEMERIS_TYPE = 0
CLASSIFICATION_TYPE = U
NORAD_CAT_ID   = 66527
ELEMENT_SET_NO = 999
REV_AT_EPOCH   = 250
BSTAR          = -.53486026E-2
MEAN_MOTION_DOT = -.1380404E-1
MEAN_MOTION_DDOT = 0

CCSDS_OMM_VERS = 2.0
CREATION_DATE  = 
ORIGINATOR     = 

OBJECT_NAME    = STARLINK-35928
OBJECT_ID      = 2025-265N
CENTER_NAME    = EARTH
REF_FRAME      = TEME
TIME_SYSTEM    = UTC
MEAN_ELEMENT_THEORY = SGP/SGP4

EPOCH          = 2025-11-27T06:00:02.000160
MEAN_MOTION    = 15.88960919
ECCENTRICITY   = .00018421
INCLINATION    = 43.0015
RA_OF_ASC_NODE = 146.9711
ARG_OF_PERICENTER = 274.0375
MEAN_ANOMALY   = 174.2116

EPHEMERIS_TYPE = 0
CLASSIFICATION_TYPE = U
NORAD_CAT_ID   = 66528
ELEMENT_SET_NO = 999
REV_AT_EPOCH   = 250
BSTAR          = -.53530763E-2
MEAN_MOTION_DOT = -.1383657E-1
MEAN_MOTION_DDOT = 0

CCSDS_OMM_VERS = 2.0
CREATION_DATE  = 
ORIGINATOR     = 

OBJECT_NAME    = STARLINK-35933
OBJECT_ID      = 2025-265P
CENTER_NAME    = EARTH
REF_FRAME      = TEME
TIME_SYSTEM    = UTC
MEAN_ELEMENT_THEORY = SGP/SGP4

EPOCH          = 2025-11-27T06:00:02.000160
MEAN_MOTION    = 15.89004316
ECCENTRICITY   = .00018512
INCLINATION    = 43.0015
RA_OF_ASC_NODE = 146.9653
ARG_OF_PERICENTER = 272.4069
MEAN_ANOMALY   = 178.0532

EPHEMERIS_TYPE = 0
CLASSIFICATION_TYPE = U
NORAD_CAT_ID   = 66529
ELEMENT_SET_NO = 999
REV_AT_EPOCH   = 250
BSTAR          = -.53969769E-2
MEAN_MOTION_DOT = -.139626E-1
MEAN_MOTION_DDOT = 0

